{
  "type": "FeatureCollection",
  "features": [
    {
      "type": "Feature",
      "properties": {
        "norad_id": 35890,
        "name": "COSMOS 2251 DEB",
        "group": "cosmos-2251-debris",
        "lat": -25.242959738824386,
        "lon": -133.81287181833264,
        "alt_km": 671.444762026058,
        "timestamp": "2025-12-17T07:00:47.306341+00:00",
        "meta_object_name": "COSMOS 2251 DEB",
        "meta_object_id": "1993-036AUD",
        "meta_epoch": "2025-12-16T22:53:46.078656",
        "meta_mean_motion": 14.57543512,
        "meta_eccentricity": 0.00539437,
        "meta_inclination": 73.9365,
        "meta_ra_of_asc_node": 234.6414,
        "meta_arg_of_pericenter": 358.5125,
        "meta_mean_anomaly": 1.5869,
        "meta_ephemeris_type": 0,
        "meta_classification_type": "U",
        "meta_norad_cat_id": 35890,
        "meta_element_set_no": 999,
        "meta_rev_at_epoch": 65212,
        "meta_bstar": 0.0012168345,
        "meta_mean_motion_dot": 5.621e-05,
        "meta_mean_motion_ddot": 0,
        "tle_line1": "1 35890U 93036AUD 25350.95400554  .00005621  00000+0  12168-2 0  9996",
        "tle_line2": "2 35890  73.9365 234.6414 0053943 358.5125   1.5869 14.57543512652129"
      },
      "geometry": {
        "type": "Point",
        "coordinates": [
          -133.81287181833264,
          -25.242959738824386
        ]
      }
    },
    {
      "type": "Feature",
      "properties": {
        "norad_id": 35891,
        "name": "COSMOS 2251 DEB",
        "group": "cosmos-2251-debris",
        "lat": 32.89188762122775,
        "lon": 94.80818900360536,
        "alt_km": 492.13873312517717,
        "timestamp": "2025-12-17T07:00:47.306351+00:00",
        "meta_object_name": "COSMOS 2251 DEB",
        "meta_object_id": "1993-036AUE",
        "meta_epoch": "2025-12-15T00:03:56.102688",
        "meta_mean_motion": 15.335426,
        "meta_eccentricity": 0.00432858,
        "meta_inclination": 73.9883,
        "meta_ra_of_asc_node": 89.017,
        "meta_arg_of_pericenter": 219.4473,
        "meta_mean_anomaly": 140.3579,
        "meta_ephemeris_type": 0,
        "meta_classification_type": "U",
        "meta_norad_cat_id": 35891,
        "meta_element_set_no": 999,
        "meta_rev_at_epoch": 67255,
        "meta_bstar": 0.00088892356,
        "meta_mean_motion_dot": 0.00029776,
        "meta_mean_motion_ddot": 0,
        "tle_line1": "1 35891U 93036AUE 25349.00273267  .00029776  00000+0  88892-3 0  9995",
        "tle_line2": "2 35891  73.9883  89.0170 0043285 219.4473 140.3579 15.33542600672556"
      },
      "geometry": {
        "type": "Point",
        "coordinates": [
          94.80818900360536,
          32.89188762122775
        ]
      }
    },
    {
      "type": "Feature",
      "properties": {
        "norad_id": 35895,
        "name": "COSMOS 2251 DEB",
        "group": "cosmos-2251-debris",
        "lat": -12.23594799425822,
        "lon": -23.7836558922744,
        "alt_km": 888.590713794184,
        "timestamp": "2025-12-17T07:00:47.306361+00:00",
        "meta_object_name": "COSMOS 2251 DEB",
        "meta_object_id": "1993-036AUJ",
        "meta_epoch": "2025-12-11T07:10:31.732032",
        "meta_mean_motion": 14.01513994,
        "meta_eccentricity": 0.01987879,
        "meta_inclination": 74.0502,
        "meta_ra_of_asc_node": 350.1634,
        "meta_arg_of_pericenter": 88.7843,
        "meta_mean_anomaly": 273.6056,
        "meta_ephemeris_type": 0,
        "meta_classification_type": "U",
        "meta_norad_cat_id": 35895,
        "meta_element_set_no": 999,
        "meta_rev_at_epoch": 58992,
        "meta_bstar": 0.0020881347,
        "meta_mean_motion_dot": 3.73e-05,
        "meta_mean_motion_ddot": 0,
        "tle_line1": "1 35895U 93036AUJ 25345.29897838  .00003730  00000+0  20881-2 0  9997",
        "tle_line2": "2 35895  74.0502 350.1634 0198787  88.7843 273.6056 14.01513994589929"
      },
      "geometry": {
        "type": "Point",
        "coordinates": [
          -23.7836558922744,
          -12.23594799425822
        ]
      }
    },
    {
      "type": "Feature",
      "properties": {
        "norad_id": 35898,
        "name": "COSMOS 2251 DEB",
        "group": "cosmos-2251-debris",
        "lat": -56.52859122849348,
        "lon": -97.48491683800714,
        "alt_km": 625.4536471014526,
        "timestamp": "2025-12-17T07:00:47.306372+00:00",
        "meta_object_name": "COSMOS 2251 DEB",
        "meta_object_id": "1993-036AUM",
        "meta_epoch": "2025-12-16T02:25:55.935840",
        "meta_mean_motion": 14.94763438,
        "meta_eccentricity": 0.00792523,
        "meta_inclination": 73.9915,
        "meta_ra_of_asc_node": 290.658,
        "meta_arg_of_pericenter": 73.1866,
        "meta_mean_anomaly": 301.776,
        "meta_ephemeris_type": 0,
        "meta_classification_type": "U",
        "meta_norad_cat_id": 35898,
        "meta_element_set_no": 999,
        "meta_rev_at_epoch": 66860,
        "meta_bstar": 0.00053603362,
        "meta_mean_motion_dot": 6.167e-05,
        "meta_mean_motion_ddot": 0,
        "tle_line1": "1 35898U 93036AUM 25350.10134185  .00006167  00000+0  53603-3 0  9991",
        "tle_line2": "2 35898  73.9915 290.6580 0079252  73.1866 301.7760 14.94763438668604"
      },
      "geometry": {
        "type": "Point",
        "coordinates": [
          -97.48491683800714,
          -56.52859122849348
        ]
      }
    },
    {
      "type": "Feature",
      "properties": {
        "norad_id": 35901,
        "name": "COSMOS 2251 DEB",
        "group": "cosmos-2251-debris",
        "lat": 29.47511609168929,
        "lon": -175.82939122560782,
        "alt_km": 547.011922309719,
        "timestamp": "2025-12-17T07:00:47.306382+00:00",
        "meta_object_name": "COSMOS 2251 DEB",
        "meta_object_id": "1993-036AUQ",
        "meta_epoch": "2025-12-16T19:59:22.145280",
        "meta_mean_motion": 15.07435948,
        "meta_eccentricity": 0.00074027,
        "meta_inclination": 74.0113,
        "meta_ra_of_asc_node": 14.4424,
        "meta_arg_of_pericenter": 349.5218,
        "meta_mean_anomaly": 187.9847,
        "meta_ephemeris_type": 0,
        "meta_classification_type": "U",
        "meta_norad_cat_id": 35901,
        "meta_element_set_no": 999,
        "meta_rev_at_epoch": 86188,
        "meta_bstar": 0.0025351031,
        "meta_mean_motion_dot": 0.00038614,
        "meta_mean_motion_ddot": 0,
        "tle_line1": "1 35901U 93036AUQ 25350.83289520  .00038614  00000+0  25351-2 0  9990",
        "tle_line2": "2 35901  74.0113  14.4424 0007402 349.5218 187.9847 15.07435948861881"
      },
      "geometry": {
        "type": "Point",
        "coordinates": [
          -175.82939122560782,
          29.47511609168929
        ]
      }
    },
    {
      "type": "Feature",
      "properties": {
        "norad_id": 35902,
        "name": "COSMOS 2251 DEB",
        "group": "cosmos-2251-debris",
        "lat": -18.420895825560677,
        "lon": 51.81228143092184,
        "alt_km": 863.2234465897864,
        "timestamp": "2025-12-17T07:00:47.306392+00:00",
        "meta_object_name": "COSMOS 2251 DEB",
        "meta_object_id": "1993-036AUR",
        "meta_epoch": "2025-12-12T01:33:56.017152",
        "meta_mean_motion": 14.26898947,
        "meta_eccentricity": 0.01020569,
        "meta_inclination": 73.9828,
        "meta_ra_of_asc_node": 235.8058,
        "meta_arg_of_pericenter": 350.6999,
        "meta_mean_anomaly": 9.2255,
        "meta_ephemeris_type": 0,
        "meta_classification_type": "U",
        "meta_norad_cat_id": 35902,
        "meta_element_set_no": 999,
        "meta_rev_at_epoch": 61120,
        "meta_bstar": 0.0016300387,
        "meta_mean_motion_dot": 4.159e-05,
        "meta_mean_motion_ddot": 0,
        "tle_line1": "1 35902U 93036AUR 25346.06523168  .00004159  00000+0  16300-2 0  9991",
        "tle_line2": "2 35902  73.9828 235.8058 0102056 350.6999   9.2255 14.26898947611205"
      },
      "geometry": {
        "type": "Point",
        "coordinates": [
          51.81228143092184,
          -18.420895825560677
        ]
      }
    },
    {
      "type": "Feature",
      "properties": {
        "norad_id": 35905,
        "name": "COSMOS 2251 DEB",
        "group": "cosmos-2251-debris",
        "lat": -67.00534960286683,
        "lon": 64.0071174360944,
        "alt_km": 520.5499952004538,
        "timestamp": "2025-12-17T07:00:47.306402+00:00",
        "meta_object_name": "COSMOS 2251 DEB",
        "meta_object_id": "1993-036AUU",
        "meta_epoch": "2025-12-16T20:16:13.880640",
        "meta_mean_motion": 14.99078139,
        "meta_eccentricity": 0.00906751,
        "meta_inclination": 74.0313,
        "meta_ra_of_asc_node": 202.4789,
        "meta_arg_of_pericenter": 281.603,
        "meta_mean_anomaly": 77.4989,
        "meta_ephemeris_type": 0,
        "meta_classification_type": "U",
        "meta_norad_cat_id": 35905,
        "meta_element_set_no": 999,
        "meta_rev_at_epoch": 88644,
        "meta_bstar": 0.00037661348,
        "meta_mean_motion_dot": 4.941e-05,
        "meta_mean_motion_ddot": 0,
        "tle_line1": "1 35905U 93036AUU 25350.84460510  .00004941  00000+0  37661-3 0  9999",
        "tle_line2": "2 35905  74.0313 202.4789 0090675 281.6030  77.4989 14.99078139886446"
      },
      "geometry": {
        "type": "Point",
        "coordinates": [
          64.0071174360944,
          -67.00534960286683
        ]
      }
    }
  ]
}